STARLINK-37106          
1 68219U 26053N   26086.25003472 -.01996655  00000+0 -10333-1 0  9990
2 68219  97.2795 321.3606 0001434 104.4445 200.6552 15.84022563  2831
STARLINK-37030          
1 68220U 26053P   26086.25003472 -.02005298  00000+0 -10232-1 0  9995
2 68220  97.2788 321.3634 0001614 105.3702 207.4472 15.84328499  2835
STARLINK-37012          
1 68221U 26053Q   26086.25003472 -.02002371  00000+0 -10286-1 0  9994
2 68221  97.2787 321.3619 0001705 102.8278 206.1205 15.84183130  2830
STARLINK-37110          
1 68222U 26053R   26086.25003472 -.02000611  00000+0 -10128-1 0  9995
2 68222  97.2786 321.3652 0001577 104.3337 212.2853 15.84484556  2830
STARLINK-37025          
1 68223U 26053S   26086.25003472 -.01999099  00000+0 -10054-1 0  9990
2 68223  97.2781 321.3659 0001475 101.9035 218.5716 15.84619799  2834
STARLINK-36977          
1 68224U 26053T   26086.25003472 -.01992840  00000+0 -99343-2 0  9997
2 68224  97.2775 321.3673 0001568 110.9733 213.1995 15.84792884  2727
STARLINK-36960          
1 68225U 26053U   26086.25003472 -.01987408  00000+0 -98205-2 0  9998
2 68225  97.2774 321.3690 0001264  98.0941 229.7324 15.84970314  2811
STARLINK-37038          
1 68226U 26053V   26086.25003472 -.01990019  00000+0 -96984-2 0  9993
2 68226  97.2775 321.3725 0001392 105.2622 230.0920 15.85258332  2818
STARLINK-37083          
1 68227U 26053W   26086.25003472 -.01991347  00000+0 -97663-2 0  9994
2 68227  97.2778 321.3713 0001707 108.6209 222.9405 15.85125929  2832
STARLINK-37050          
1 68228U 26053X   26086.25003472 -.02002976  00000+0 -97094-2 0  9995
2 68228  97.2776 321.3748 0001528  99.8234 239.3598 15.85387568  2811
STARLINK-37081          
1 68229U 26053Y   26086.25003472 -.02001427  00000+0 -95007-2 0  9998
2 68229  97.2765 321.3792 0001303  98.2262 252.0684 15.85818934  2830
STARLINK-37100          
1 68230U 26053Z   26086.25003472 -.01999792  00000+0 -96147-2 0  9996
2 68230  97.2769 321.3761 0001369  95.6704 247.1284 15.85553636  2832
STARLINK-37104          
1 68231U 26053AA  26086.25003472 -.01998566  00000+0 -95467-2 0  9999
2 68231  97.2768 321.3778 0001588 106.9071 239.6603 15.85681996  2838
STARLINK-37027          
1 68232U 26054A   26086.25003472 -.00079850  00000+0 -40475-3 0  9996
2 68232  53.1587 224.6687 0000902 111.6061 151.0193 15.80873809  2735
STARLINK-37132          
1 68233U 26054B   26086.25003472 -.00077319  00000+0 -39143-3 0  9995
2 68233  53.1588 224.6595 0000877  59.3186 207.5739 15.80888738  2811
STARLINK-37101          
1 68234U 26054C   26086.25003472  .00073799  00000+0  37531-3 0  9991
2 68234  53.1587 224.6508 0000881  84.7157 186.4603 15.80811258  2739
