[{"OBJECT_NAME":"STARLINK-37106","OBJECT_ID":"2026-053N","EPOCH":"2026-03-27T06:00:02.999808","MEAN_MOTION":15.84022563,"ECCENTRICITY":0.00014346,"INCLINATION":97.2795,"RA_OF_ASC_NODE":321.3606,"ARG_OF_PERICENTER":104.4445,"MEAN_ANOMALY":200.6552,"EPHEMERIS_TYPE":0,"CLASSIFICATION_TYPE":"U","NORAD_CAT_ID":68219,"ELEMENT_SET_NO":999,"REV_AT_EPOCH":283,"BSTAR":-0.010332621,"MEAN_MOTION_DOT":-0.01996655,"MEAN_MOTION_DDOT":0},{"OBJECT_NAME":"STARLINK-37030","OBJECT_ID":"2026-053P","EPOCH":"2026-03-27T06:00:02.999808","MEAN_MOTION":15.84328499,"ECCENTRICITY":0.00016143,"INCLINATION":97.2788,"RA_OF_ASC_NODE":321.3634,"ARG_OF_PERICENTER":105.3702,"MEAN_ANOMALY":207.4472,"EPHEMERIS_TYPE":0,"CLASSIFICATION_TYPE":"U","NORAD_CAT_ID":68220,"ELEMENT_SET_NO":999,"REV_AT_EPOCH":283,"BSTAR":-0.010231964,"MEAN_MOTION_DOT":-0.02005298,"MEAN_MOTION_DDOT":0},{"OBJECT_NAME":"STARLINK-37012","OBJECT_ID":"2026-053Q","EPOCH":"2026-03-27T06:00:02.999808","MEAN_MOTION":15.8418313,"ECCENTRICITY":0.00017056,"INCLINATION":97.2787,"RA_OF_ASC_NODE":321.3619,"ARG_OF_PERICENTER":102.8278,"MEAN_ANOMALY":206.1205,"EPHEMERIS_TYPE":0,"CLASSIFICATION_TYPE":"U","NORAD_CAT_ID":68221,"ELEMENT_SET_NO":999,"REV_AT_EPOCH":283,"BSTAR":-0.010285563,"MEAN_MOTION_DOT":-0.02002371,"MEAN_MOTION_DDOT":0},{"OBJECT_NAME":"STARLINK-37110","OBJECT_ID":"2026-053R","EPOCH":"2026-03-27T06:00:02.999808","MEAN_MOTION":15.84484556,"ECCENTRICITY":0.00015774,"INCLINATION":97.2786,"RA_OF_ASC_NODE":321.3652,"ARG_OF_PERICENTER":104.3337,"MEAN_ANOMALY":212.2853,"EPHEMERIS_TYPE":0,"CLASSIFICATION_TYPE":"U","NORAD_CAT_ID":68222,"ELEMENT_SET_NO":999,"REV_AT_EPOCH":283,"BSTAR":-0.010128324,"MEAN_MOTION_DOT":-0.02000611,"MEAN_MOTION_DDOT":0},{"OBJECT_NAME":"STARLINK-37025","OBJECT_ID":"2026-053S","EPOCH":"2026-03-27T06:00:02.999808","MEAN_MOTION":15.84619799,"ECCENTRICITY":0.00014757,"INCLINATION":97.2781,"RA_OF_ASC_NODE":321.3659,"ARG_OF_PERICENTER":101.9035,"MEAN_ANOMALY":218.5716,"EPHEMERIS_TYPE":0,"CLASSIFICATION_TYPE":"U","NORAD_CAT_ID":68223,"ELEMENT_SET_NO":999,"REV_AT_EPOCH":283,"BSTAR":-0.0100545,"MEAN_MOTION_DOT":-0.01999099,"MEAN_MOTION_DDOT":0},{"OBJECT_NAME":"STARLINK-36977","OBJECT_ID":"2026-053T","EPOCH":"2026-03-27T06:00:02.999808","MEAN_MOTION":15.84792884,"ECCENTRICITY":0.00015681,"INCLINATION":97.2775,"RA_OF_ASC_NODE":321.3673,"ARG_OF_PERICENTER":110.9733,"MEAN_ANOMALY":213.1995,"EPHEMERIS_TYPE":0,"CLASSIFICATION_TYPE":"U","NORAD_CAT_ID":68224,"ELEMENT_SET_NO":999,"REV_AT_EPOCH":272,"BSTAR":-0.0099343108,"MEAN_MOTION_DOT":-0.0199284,"MEAN_MOTION_DDOT":0},{"OBJECT_NAME":"STARLINK-36960","OBJECT_ID":"2026-053U","EPOCH":"2026-03-27T06:00:02.999808","MEAN_MOTION":15.84970314,"ECCENTRICITY":0.00012646,"INCLINATION":97.2774,"RA_OF_ASC_NODE":321.369,"ARG_OF_PERICENTER":98.0941,"MEAN_ANOMALY":229.7324,"EPHEMERIS_TYPE":0,"CLASSIFICATION_TYPE":"U","NORAD_CAT_ID":68225,"ELEMENT_SET_NO":999,"REV_AT_EPOCH":281,"BSTAR":-0.009820511,"MEAN_MOTION_DOT":-0.01987408,"MEAN_MOTION_DDOT":0},{"OBJECT_NAME":"STARLINK-37038","OBJECT_ID":"2026-053V","EPOCH":"2026-03-27T06:00:02.999808","MEAN_MOTION":15.85258332,"ECCENTRICITY":0.00013926,"INCLINATION":97.2775,"RA_OF_ASC_NODE":321.3725,"ARG_OF_PERICENTER":105.2622,"MEAN_ANOMALY":230.092,"EPHEMERIS_TYPE":0,"CLASSIFICATION_TYPE":"U","NORAD_CAT_ID":68226,"ELEMENT_SET_NO":999,"REV_AT_EPOCH":281,"BSTAR":-0.0096984381,"MEAN_MOTION_DOT":-0.01990019,"MEAN_MOTION_DDOT":0},{"OBJECT_NAME":"STARLINK-37083","OBJECT_ID":"2026-053W","EPOCH":"2026-03-27T06:00:02.999808","MEAN_MOTION":15.85125929,"ECCENTRICITY":0.00017074,"INCLINATION":97.2778,"RA_OF_ASC_NODE":321.3713,"ARG_OF_PERICENTER":108.6209,"MEAN_ANOMALY":222.9405,"EPHEMERIS_TYPE":0,"CLASSIFICATION_TYPE":"U","NORAD_CAT_ID":68227,"ELEMENT_SET_NO":999,"REV_AT_EPOCH":283,"BSTAR":-0.009766328,"MEAN_MOTION_DOT":-0.01991347,"MEAN_MOTION_DDOT":0},{"OBJECT_NAME":"STARLINK-37050","OBJECT_ID":"2026-053X","EPOCH":"2026-03-27T06:00:02.999808","MEAN_MOTION":15.85387568,"ECCENTRICITY":0.00015289,"INCLINATION":97.2776,"RA_OF_ASC_NODE":321.3748,"ARG_OF_PERICENTER":99.8234,"MEAN_ANOMALY":239.3598,"EPHEMERIS_TYPE":0,"CLASSIFICATION_TYPE":"U","NORAD_CAT_ID":68228,"ELEMENT_SET_NO":999,"REV_AT_EPOCH":281,"BSTAR":-0.0097094372,"MEAN_MOTION_DOT":-0.02002976,"MEAN_MOTION_DDOT":0},{"OBJECT_NAME":"STARLINK-37081","OBJECT_ID":"2026-053Y","EPOCH":"2026-03-27T06:00:02.999808","MEAN_MOTION":15.85818934,"ECCENTRICITY":0.00013036,"INCLINATION":97.2765,"RA_OF_ASC_NODE":321.3792,"ARG_OF_PERICENTER":98.2262,"MEAN_ANOMALY":252.0684,"EPHEMERIS_TYPE":0,"CLASSIFICATION_TYPE":"U","NORAD_CAT_ID":68229,"ELEMENT_SET_NO":999,"REV_AT_EPOCH":283,"BSTAR":-0.0095006819,"MEAN_MOTION_DOT":-0.02001427,"MEAN_MOTION_DDOT":0},{"OBJECT_NAME":"STARLINK-37100","OBJECT_ID":"2026-053Z","EPOCH":"2026-03-27T06:00:02.999808","MEAN_MOTION":15.85553636,"ECCENTRICITY":0.00013691,"INCLINATION":97.2769,"RA_OF_ASC_NODE":321.3761,"ARG_OF_PERICENTER":95.6704,"MEAN_ANOMALY":247.1284,"EPHEMERIS_TYPE":0,"CLASSIFICATION_TYPE":"U","NORAD_CAT_ID":68230,"ELEMENT_SET_NO":999,"REV_AT_EPOCH":283,"BSTAR":-0.0096147412,"MEAN_MOTION_DOT":-0.01999792,"MEAN_MOTION_DDOT":0},{"OBJECT_NAME":"STARLINK-37104","OBJECT_ID":"2026-053AA","EPOCH":"2026-03-27T06:00:02.999808","MEAN_MOTION":15.85681996,"ECCENTRICITY":0.00015887,"INCLINATION":97.2768,"RA_OF_ASC_NODE":321.3778,"ARG_OF_PERICENTER":106.9071,"MEAN_ANOMALY":239.6603,"EPHEMERIS_TYPE":0,"CLASSIFICATION_TYPE":"U","NORAD_CAT_ID":68231,"ELEMENT_SET_NO":999,"REV_AT_EPOCH":283,"BSTAR":-0.0095467172,"MEAN_MOTION_DOT":-0.01998566,"MEAN_MOTION_DDOT":0},{"OBJECT_NAME":"STARLINK-37027","OBJECT_ID":"2026-054A","EPOCH":"2026-03-27T06:00:02.999808","MEAN_MOTION":15.80873809,"ECCENTRICITY":9.02e-5,"INCLINATION":53.1587,"RA_OF_ASC_NODE":224.6687,"ARG_OF_PERICENTER":111.6061,"MEAN_ANOMALY":151.0193,"EPHEMERIS_TYPE":0,"CLASSIFICATION_TYPE":"U","NORAD_CAT_ID":68232,"ELEMENT_SET_NO":999,"REV_AT_EPOCH":273,"BSTAR":-0.00040475205,"MEAN_MOTION_DOT":-0.0007985,"MEAN_MOTION_DDOT":0},{"OBJECT_NAME":"STARLINK-37132","OBJECT_ID":"2026-054B","EPOCH":"2026-03-27T06:00:02.999808","MEAN_MOTION":15.80888738,"ECCENTRICITY":8.779e-5,"INCLINATION":53.1588,"RA_OF_ASC_NODE":224.6595,"ARG_OF_PERICENTER":59.3186,"MEAN_ANOMALY":207.5739,"EPHEMERIS_TYPE":0,"CLASSIFICATION_TYPE":"U","NORAD_CAT_ID":68233,"ELEMENT_SET_NO":999,"REV_AT_EPOCH":281,"BSTAR":-0.00039142531,"MEAN_MOTION_DOT":-0.00077319,"MEAN_MOTION_DDOT":0},{"OBJECT_NAME":"STARLINK-37101","OBJECT_ID":"2026-054C","EPOCH":"2026-03-27T06:00:02.999808","MEAN_MOTION":15.80811258,"ECCENTRICITY":8.812e-5,"INCLINATION":53.1587,"RA_OF_ASC_NODE":224.6508,"ARG_OF_PERICENTER":84.7157,"MEAN_ANOMALY":186.4603,"EPHEMERIS_TYPE":0,"CLASSIFICATION_TYPE":"U","NORAD_CAT_ID":68234,"ELEMENT_SET_NO":999,"REV_AT_EPOCH":273,"BSTAR":0.00037531183,"MEAN_MOTION_DOT":0.00073799,"MEAN_MOTION_DDOT":0}]
